{"type": "FeatureCollection", "features": [ {"type": "Feature", "properties": {"norad_id": 30845, "name": "FENGYUN 1C DEB", "group": "fengyun-1c-debris", "lat": 78.19135523670879, "lon": -55.97410652654632, "alt_km": 1108.5746855932803, "timestamp": "2025-12-14T11:29:50.339499+00:00", "meta": {"OBJECT_NAME": "FENGYUN 1C DEB", "OBJECT_ID": "1999-025AWF", "EPOCH": "2025-12-13T05:44:31.180128", "MEAN_MOTION": 13.768586, "ECCENTRICITY": 0.01920353, "INCLINATION": 98.3793, "RA_OF_ASC_NODE": 347.7601, "ARG_OF_PERICENTER": 269.1352, "MEAN_ANOMALY": 150.3978, "EPHEMERIS_TYPE": 0, "CLASSIFICATION_TYPE": "U", "NORAD_CAT_ID": 30845, "ELEMENT_SET_NO": 999, "REV_AT_EPOCH": 94250, "BSTAR": 0.00051696086, "MEAN_MOTION_DOT": 5.45e-06, "MEAN_MOTION_DDOT": 0}, "tle": {"line1": "1 30845U 99025AWF 25347.23924977  .00000545  00000+0  51696-3 0  9992", "line2": "2 30845  98.3793 347.7601 0192035 269.1352 150.3978 13.76858600942504"}}, "geometry": {"type": "Point", "coordinates": [-55.97410652654632, 78.19135523670879]}}, {"type": "Feature", "properties": {"norad_id": 30846, "name": "FENGYUN 1C DEB", "group": "fengyun-1c-debris", "lat": -16.319232667410386, "lon": 164.60181227964318, "alt_km": 720.4819410653654, "timestamp": "2025-12-14T11:29:50.339510+00:00", "meta": {"OBJECT_NAME": "FENGYUN 1C DEB", "OBJECT_ID": "1999-025AWG", "EPOCH": "2025-12-13T10:43:16.685760", "MEAN_MOTION": 14.41550629, "ECCENTRICITY": 0.00539967, "INCLINATION": 99.3208, "RA_OF_ASC_NODE": 160.7202, "ARG_OF_PERICENTER": 334.391, "MEAN_ANOMALY": 54.6764, "EPHEMERIS_TYPE": 0, "CLASSIFICATION_TYPE": "U", "NORAD_CAT_ID": 30846, "ELEMENT_SET_NO": 999, "REV_AT_EPOCH": 97940, "BSTAR": 0.0013016798, "MEAN_MOTION_DOT": 4.255e-05, "MEAN_MOTION_DDOT": 0}, "tle": {"line1": "1 30846U 99025AWG 25347.44672090  .00004255  00000+0  13017-2 0  9998", "line2": "2 30846  99.3208 160.7202 0053996 334.3910  54.6764 14.41550629979405"}}, "geometry": {"type": "Point", "coordinates": [164.60181227964318, -16.319232667410386]}}, {"type": "Feature", "properties": {"norad_id": 30847, "name": "FENGYUN 1C DEB", "group": "fengyun-1c-debris", "lat": -77.69520061652415, "lon": -76.19431917845512, "alt_km": 820.2062985628663, "timestamp": "2025-12-14T11:29:50.339521+00:00", "meta": {"OBJECT_NAME": "FENGYUN 1C DEB", "OBJECT_ID": "1999-025AWH", "EPOCH": "2025-12-13T04:01:13.837728", "MEAN_MOTION": 14.17027087, "ECCENTRICITY": 0.00654841, "INCLINATION": 98.7316, "RA_OF_ASC_NODE": 147.3131, "ARG_OF_PERICENTER": 326.9533, "MEAN_ANOMALY": 88.188, "EPHEMERIS_TYPE": 0, "CLASSIFICATION_TYPE": "U", "NORAD_CAT_ID": 30847, "ELEMENT_SET_NO": 999, "REV_AT_EPOCH": 96061, "BSTAR": 0.0027996212, "MEAN_MOTION_DOT": 5.708e-05, "MEAN_MOTION_DDOT": 0}, "tle": {"line1": "1 30847U 99025AWH 25347.16752127  .00005708  00000+0  27996-2 0  9993", "line2": "2 30847  98.7316 147.3131 0065484 326.9533  88.1880 14.17027087960618"}}, "geometry": {"type": "Point", "coordinates": [-76.19431917845512, -77.69520061652415]}}, {"type": "Feature", "properties": {"norad_id": 30848, "name": "FENGYUN 1C DEB", "group": "fengyun-1c-debris", "lat": 66.23981614536643, "lon": 24.649748064252826, "alt_km": 794.6737918517456, "timestamp": "2025-12-14T11:29:50.339534+00:00", "meta": {"OBJECT_NAME": "FENGYUN 1C DEB", "OBJECT_ID": "1999-025AWJ", "EPOCH": "2025-12-12T12:06:18.747360", "MEAN_MOTION": 14.34482852, "ECCENTRICITY": 0.00438482, "INCLINATION": 99.0599, "RA_OF_ASC_NODE": 181.3298, "ARG_OF_PERICENTER": 336.4122, "MEAN_ANOMALY": 23.505, "EPHEMERIS_TYPE": 0, "CLASSIFICATION_TYPE": "U", "NORAD_CAT_ID": 30848, "ELEMENT_SET_NO": 999, "REV_AT_EPOCH": 97303, "BSTAR": 0.0018094633, "MEAN_MOTION_DOT": 5.111e-05, "MEAN_MOTION_DDOT": 0}, "tle": {"line1": "1 30848U 99025AWJ 25346.50438365  .00005111  00000+0  18095-2 0  9994", "line2": "2 30848  99.0599 181.3298 0043848 336.4122  23.5050 14.34482852973034"}}, "geometry": {"type": "Point", "coordinates": [24.649748064252826, 66.23981614536643]}}, {"type": "Feature", "properties": {"norad_id": 30849, "name": "FENGYUN 1C DEB", "group": "fengyun-1c-debris", "lat": 65.02025793871367, "lon": 28.513278261967553, "alt_km": 808.267696432421, "timestamp": "2025-12-14T11:29:50.339545+00:00", "meta": {"OBJECT_NAME": "FENGYUN 1C DEB", "OBJECT_ID": "1999-025AWK", "EPOCH": "2025-12-13T15:35:34.723680", "MEAN_MOTION": 14.18863966, "ECCENTRICITY": 0.00480004, "INCLINATION": 99.0478, "RA_OF_ASC_NODE": 47.6675, "ARG_OF_PERICENTER": 3.5906, "MEAN_ANOMALY": 148.6916, "EPHEMERIS_TYPE": 0, "CLASSIFICATION_TYPE": "U", "NORAD_CAT_ID": 30849, "ELEMENT_SET_NO": 999, "REV_AT_EPOCH": 96385, "BSTAR": 0.0016925655, "MEAN_MOTION_DOT": 3.519e-05, "MEAN_MOTION_DDOT": 0}, "tle": {"line1": "1 30849U 99025AWK 25347.64970745  .00003519  00000+0  16926-2 0  9995", "line2": "2 30849  99.0478  47.6675 0048000   3.5906 148.6916 14.18863966963851"}}, "geometry": {"type": "Point", "coordinates": [28.513278261967553, 65.02025793871367]}}, {"type": "Feature", "properties": {"norad_id": 30850, "name": "FENGYUN 1C DEB", "group": "fengyun-1c-debris", "lat": -18.642895199062295, "lon": -143.26209613465718, "alt_km": 909.8160625810851, "timestamp": "2025-12-14T11:29:50.339555+00:00", "meta": {"OBJECT_NAME": "FENGYUN 1C DEB", "OBJECT_ID": "1999-025AWL", "EPOCH": "2025-12-13T13:41:17.908224", "MEAN_MOTION": 14.16294958, "ECCENTRICITY": 0.01092353, "INCLINATION": 98.3951, "RA_OF_ASC_NODE": 213.0251, "ARG_OF_PERICENTER": 195.4432, "MEAN_ANOMALY": 194.5711, "EPHEMERIS_TYPE": 0, "CLASSIFICATION_TYPE": "U", "NORAD_CAT_ID": 30850, "ELEMENT_SET_NO": 999, "REV_AT_EPOCH": 95810, "BSTAR": 0.0024297574, "MEAN_MOTION_DOT": 5.069e-05, "MEAN_MOTION_DDOT": 0}, "tle": {"line1": "1 30850U 99025AWL 25347.57034616  .00005069  00000+0  24298-2 0  9990", "line2": "2 30850  98.3951 213.0251 0109235 195.4432 194.5711 14.16294958958105"}}, "geometry": {"type": "Point", "coordinates": [-143.26209613465718, -18.642895199062295]}}, {"type": "Feature", "properties": {"norad_id": 30852, "name": "FENGYUN 1C DEB", "group": "fengyun-1c-debris", "lat": -69.77443500969089, "lon": 30.838961429137967, "alt_km": 844.4851008461164, "timestamp": "2025-12-14T11:29:50.339565+00:00", "meta": {"OBJECT_NAME": "FENGYUN 1C DEB", "OBJECT_ID": "1999-025AWN", "EPOCH": "2025-12-13T11:59:55.345632", "MEAN_MOTION": 14.10286665, "ECCENTRICITY": 0.00558631, "INCLINATION": 98.7336, "RA_OF_ASC_NODE": 5.2289, "ARG_OF_PERICENTER": 232.3842, "MEAN_ANOMALY": 127.2251, "EPHEMERIS_TYPE": 0, "CLASSIFICATION_TYPE": "U", "NORAD_CAT_ID": 30852, "ELEMENT_SET_NO": 999, "REV_AT_EPOCH": 96393, "BSTAR": 0.00069072685, "MEAN_MOTION_DOT": 1.2e-05, "MEAN_MOTION_DDOT": 0}, "tle": {"line1": "1 30852U 99025AWN 25347.49994613  .00001200  00000+0  69073-3 0  9999", "line2": "2 30852  98.7336   5.2289 0055863 232.3842 127.2251 14.10286665963932"}}, "geometry": {"type": "Point", "coordinates": [30.838961429137967, -69.77443500969089]}}, {"type": "Feature", "properties": {"norad_id": 30856, "name": "FENGYUN 1C DEB", "group": "fengyun-1c-debris", "lat": -54.10677288503535, "lon": -175.29489662720485, "alt_km": 724.4219969458045, "timestamp": "2025-12-14T11:29:50.339575+00:00", "meta": {"OBJECT_NAME": "FENGYUN 1C DEB", "OBJECT_ID": "1999-025AWS", "EPOCH": "2025-12-13T01:29:03.445152", "MEAN_MOTION": 14.46190819, "ECCENTRICITY": 0.00880801, "INCLINATION": 98.2006, "RA_OF_ASC_NODE": 171.8401, "ARG_OF_PERICENTER": 238.0329, "MEAN_ANOMALY": 251.8848, "EPHEMERIS_TYPE": 0, "CLASSIFICATION_TYPE": "U", "NORAD_CAT_ID": 30856, "ELEMENT_SET_NO": 999, "REV_AT_EPOCH": 96530, "BSTAR": 0.0070896281, "MEAN_MOTION_DOT": 0.00026656, "MEAN_MOTION_DDOT": 0}, "tle": {"line1": "1 30856U 99025AWS 25347.06184543  .00026656  00000+0  70896-2 0  9995", "line2": "2 30856  98.2006 171.8401 0088080 238.0329 251.8848 14.46190819965304"}}, "geometry": {"type": "Point", "coordinates": [-175.29489662720485, -54.10677288503535]}}, {"type": "Feature", "properties": {"norad_id": 30857, "name": "FENGYUN 1C DEB", "group": "fengyun-1c-debris", "lat": 10.362017644189574, "lon": 160.01436376188892, "alt_km": 736.8294359161109, "timestamp": "2025-12-14T11:29:50.339585+00:00", "meta": {"OBJECT_NAME": "FENGYUN 1C DEB", "OBJECT_ID": "1999-025AWT", "EPOCH": "2025-12-10T22:20:28.597056", "MEAN_MOTION": 14.51403304, "ECCENTRICITY": 0.0041899, "INCLINATION": 98.9745, "RA_OF_ASC_NODE": 334.5727, "ARG_OF_PERICENTER": 300.5616, "MEAN_ANOMALY": 59.1445, "EPHEMERIS_TYPE": 0, "CLASSIFICATION_TYPE": "U", "NORAD_CAT_ID": 30857, "ELEMENT_SET_NO": 999, "REV_AT_EPOCH": 96697, "BSTAR": 0.0076916, "MEAN_MOTION_DOT": 0.0003112, "MEAN_MOTION_DDOT": 0}, "tle": {"line1": "1 30857U 99025AWT 25344.93088654  .00031120  00000+0  76916-2 0  9996", "line2": "2 30857  98.9745 334.5727 0041899 300.5616  59.1445 14.51403304966970"}}, "geometry": {"type": "Point", "coordinates": [160.01436376188892, 10.362017644189574]}}, {"type": "Feature", "properties": {"norad_id": 30858, "name": "FENGYUN 1C DEB", "group": "fengyun-1c-debris", "lat": -40.3862515881496, "lon": 53.66598970822249, "alt_km": 857.6735243793428, "timestamp": "2025-12-14T11:29:50.339595+00:00", "meta": {"OBJECT_NAME": "FENGYUN 1C DEB", "OBJECT_ID": "1999-025AWU", "EPOCH": "2025-12-13T10:22:11.233344", "MEAN_MOTION": 14.17782537, "ECCENTRICITY": 0.00307838, "INCLINATION": 98.7992, "RA_OF_ASC_NODE": 45.0577, "ARG_OF_PERICENTER": 107.9259, "MEAN_ANOMALY": 270.5837, "EPHEMERIS_TYPE": 0, "CLASSIFICATION_TYPE": "U", "NORAD_CAT_ID": 30858, "ELEMENT_SET_NO": 999, "REV_AT_EPOCH": 96990, "BSTAR": 0.00056476906, "MEAN_MOTION_DOT": 1.113e-05, "MEAN_MOTION_DDOT": 0}, "tle": {"line1": "1 30858U 99025AWU 25347.43207446  .00001113  00000+0  56477-3 0  9997", "line2": "2 30858  98.7992  45.0577 0030783 107.9259 270.5837 14.17782537969902"}}, "geometry": {"type": "Point", "coordinates": [53.66598970822249, -40.3862515881496]}}]}